{
    "links": {
        "self": "http://www.neowsapp.com/rest/v1/neo/3831617?api_key=iIulBulltgU6a56xZRHN4H3l9WmuAYTsLGpBGhQ2"
    },
    "id": "3831617",
    "neo_reference_id": "3831617",
    "name": "(2018 TQ3)",
    "designation": "2018 TQ3",
    "nasa_jpl_url": "http://ssd.jpl.nasa.gov/sbdb.cgi?sstr=3831617",
    "absolute_magnitude_h": 27.1,
    "estimated_diameter": {
        "kilometers": {
            "estimated_diameter_min": 0.0101054342,
            "estimated_diameter_max": 0.0225964377
        },
        "meters": {
            "estimated_diameter_min": 10.1054341542,
            "estimated_diameter_max": 22.5964377109
        },
        "miles": {
            "estimated_diameter_min": 0.0062792237,
            "estimated_diameter_max": 0.0140407711
        },
        "feet": {
            "estimated_diameter_min": 33.1543125905,
            "estimated_diameter_max": 74.1352966996
        }
    },
    "is_potentially_hazardous_asteroid": false,
    "close_approach_data": [
        {
            "close_approach_date": "1947-09-06",
            "close_approach_date_full": "1947-Sep-06 06:44",
            "epoch_date_close_approach": -704394960000,
            "relative_velocity": {
                "kilometers_per_second": "18.3472267427",
                "kilometers_per_hour": "66050.016273769",
                "miles_per_hour": "41040.9115007761"
            },
            "miss_distance": {
                "astronomical": "0.3900292497",
                "lunar": "151.7213781333",
                "kilometers": "58347544.992818139",
                "miles": "36255483.2694387582"
            },
            "orbiting_body": "Earth"
        },
        {
            "close_approach_date": "1948-02-20",
            "close_approach_date_full": "1948-Feb-20 05:41",
            "epoch_date_close_approach": -689969940000,
            "relative_velocity": {
                "kilometers_per_second": "10.7435215279",
                "kilometers_per_hour": "38676.6775003781",
                "miles_per_hour": "24032.183305721"
            },
            "miss_distance": {
                "astronomical": "0.0698893447",
                "lunar": "27.1869550883",
                "kilometers": "10455297.102815789",
                "miles": "6496620.3674003282"
            },
            "orbiting_body": "Mars"
        },
        {
            "close_approach_date": "2013-12-29",
            "close_approach_date_full": "2013-Dec-29 13:56",
            "epoch_date_close_approach": 1388325360000,
            "relative_velocity": {
                "kilometers_per_second": "19.97612122",
                "kilometers_per_hour": "71914.0363919849",
                "miles_per_hour": "44684.5855570086"
            },
            "miss_distance": {
                "astronomical": "0.4557946506",
                "lunar": "177.3041190834",
                "kilometers": "68185908.887154222",
                "miles": "42368759.1170113836"
            },
            "orbiting_body": "Earth"
        },
        {
            "close_approach_date": "2018-10-12",
            "close_approach_date_full": "2018-Oct-12 17:52",
            "epoch_date_close_approach": 1539366720000,
            "relative_velocity": {
                "kilometers_per_second": "7.4125507863",
                "kilometers_per_hour": "26685.1828306219",
                "miles_per_hour": "16581.1348538383"
            },
            "miss_distance": {
                "astronomical": "0.0269595628",
                "lunar": "10.4872699292",
                "kilometers": "4033093.171011236",
                "miles": "2506047.8894816168"
            },
            "orbiting_body": "Earth"
        },
        {
            "close_approach_date": "2062-09-02",
            "close_approach_date_full": "2062-Sep-02 01:03",
            "epoch_date_close_approach": 2924384580000,
            "relative_velocity": {
                "kilometers_per_second": "21.1704107851",
                "kilometers_per_hour": "76213.4788265162",
                "miles_per_hour": "47356.0918852873"
            },
            "miss_distance": {
                "astronomical": "0.4882397409",
                "lunar": "189.9252592101",
                "kilometers": "73039625.287991883",
                "miles": "45384718.6365906654"
            },
            "orbiting_body": "Earth"
        }
    ],
    "orbital_data": {
        "orbit_id": "2",
        "orbit_determination_date": "2018-11-05 05:29:05",
        "first_observation_date": "2018-10-06",
        "last_observation_date": "2018-10-09",
        "data_arc_in_days": 3,
        "observations_used": 32,
        "orbit_uncertainty": "7",
        "minimum_orbit_intersection": ".0181726",
        "jupiter_tisserand_invariant": "3.917",
        "epoch_osculation": "2459000.5",
        "eccentricity": ".4511248374018657",
        "semi_major_axis": "1.81491434991072",
        "inclination": "5.329935056093515",
        "ascending_node_longitude": "18.46621303006578",
        "orbital_period": "893.0640936881297",
        "perihelion_distance": ".9961614089089338",
        "perihelion_argument": "23.87484691427453",
        "aphelion_distance": "2.633667290912507",
        "perihelion_time": "2459316.051051190234",
        "mean_anomaly": "232.7992993656799",
        "mean_motion": ".4031065659725392",
        "equinox": "J2000",
        "orbit_class": {
            "orbit_class_type": "APO",
            "orbit_class_description": "Near-Earth asteroid orbits which cross the Earth’s orbit similar to that of 1862 Apollo",
            "orbit_class_range": "a (semi-major axis) > 1.0 AU; q (perihelion) < 1.017 AU"
        }
    },
    "is_sentry_object": false
}